STARLINK-3519           
1 51890U 22022AQ  24337.91667824  .00061799  00000+0  18844-2 0  9991
2 51890  53.1949 257.6499 0003627  95.1312  58.5803 15.33385646153739
STARLINK-3549           
1 51891U 22022AR  24337.52091061 -.00000337  00000+0 -31018-5 0  9997
2 51891  53.2166 273.8720 0001830  95.7523 264.3678 15.08835472153526
STARLINK-3587           
1 51892U 22022AS  24337.52826894  .00000347  00000+0  39894-4 0  9996
2 51892  53.2202 273.8422 0002007  96.6580 263.4641 15.08836689153472
STARLINK-3579           
1 51893U 22022AT  24337.24858089 -.00009517  00000+0 -57974-3 0  9995
2 51893  53.2164 275.0943 0002284  85.6707 274.4546 15.08894729153495
STARLINK-3595           
1 51894U 22022AU  24337.25227801 -.00001218  00000+0 -58447-4 0  9996
2 51894  53.2242 275.0765 0001557  95.5959 264.5211 15.08830073153497
STARLINK-3594           
1 51895U 22022AV  24337.24491079  .00000058  00000+0  21757-4 0  9999
2 51895  53.2183 275.1130 0001919  88.6749 271.4463 15.08833313153431
STARLINK-3593           
1 51896U 22022AW  24337.53196408  .00002978  00000+0  20508-3 0  9995
2 51896  53.2235 274.0456 0001752  78.9149 281.2040 15.08850874153521
STARLINK-3598           
1 51897U 22022AX  24337.24124615 -.00002892  00000+0 -16376-3 0  9990
2 51897  53.2170 275.1276 0001372  90.6433 269.4717 15.08822210153439
STARLINK-3597           
1 51898U 22022AY  24337.56875034  .00002310  00000+0  16319-3 0  9994
2 51898  53.2123 273.6595 0001762  84.3355 275.7838 15.08841131153539
STARLINK-3700           
1 51956U 22025A   24337.59759285 -.00000715  00000+0 -27527-4 0  9997
2 51956  53.0548 297.2055 0001953  93.7452 266.3761 15.08026027152472
STARLINK-3694           
1 51957U 22025B   24337.23187531  .00000410  00000+0  46410-4 0  9990
2 51957  53.0504 311.9182 0001868  91.3666 268.7537 15.06396335151146
STARLINK-3692           
1 51958U 22025C   24337.59377380 -.00000300  00000+0 -92451-6 0  9991
2 51958  53.0543 297.2223 0001538  91.4680 268.6486 15.08026113152478
STARLINK-3704           
1 51959U 22025D   24337.23555131 -.00000667  00000+0 -25850-4 0  9998
2 51959  53.0606 311.8751 0002053  85.8793 274.2431 15.06395536151145
STARLINK-3691           
1 51960U 22025E   24337.62628763 -.00002706  00000+0 -16291-3 0  9999
2 51960  53.0571 310.1263 0001911  85.7812 274.3395 15.06382490152293
STARLINK-3689           
1 51961U 22025F   24337.58334491  .01166493  00000+0  29852-1 0  9995
2 51961  53.0526 295.0764 0001445  76.4782 273.4928 15.36417568152522
STARLINK-3697           
1 51962U 22025G   24337.59409399 -.00000356  00000+0 -49945-5 0  9992
2 51962  53.0536 300.8513 0001874  91.3445 268.7759 15.06394072151337
STARLINK-3675           
1 51963U 22025H   24337.58706081 -.00001494  00000+0 -77630-4 0  9995
2 51963  53.0508 297.2381 0001428  92.8639 267.2514 15.08032015152472
STARLINK-3690           
1 51964U 22025J   24337.30760791  .00001734  00000+0  13534-3 0  9991
2 51964  53.0487 302.7240 0001740  92.1777 267.9412 15.06387269151282
STARLINK-3696           
1 51965U 22025K   24337.22450063 -.00000019  00000+0  17631-4 0  9990
2 51965  53.0519 311.9242 0001536  98.2133 261.9030 15.06395282151148
STARLINK-3699           
1 51966U 22025L   24337.33001258 -.00000571  00000+0 -19419-4 0  9991
2 51966  53.0549 306.4385 0001875  86.7319 273.3884 15.06392571151235
STARLINK-3681           
1 51968U 22025N   24337.28916695  .00000149  00000+0  28903-4 0  9994
2 51968  53.0524 302.7227 0001743  95.5118 264.6070 15.06390684151281
STARLINK-3680           
1 51969U 22025P   24337.32974808 -.00000303  00000+0 -14164-5 0  9999
2 51969  53.0504 302.8393 0001732  88.3469 271.7718 15.06392286151279
STARLINK-3677           
1 51970U 22025Q   24337.19363615  .00001415  00000+0  11386-3 0  9998
2 51970  53.0559 307.1273 0001295  86.6628 273.4509 15.06398020151211
STARLINK-3669           
1 51971U 22025R   24337.29284418  .00000129  00000+0  27537-4 0  9990
2 51971  53.0592 302.6561 0001626  78.1170 282.0001 15.06394905151283
STARLINK-3671           
1 51972U 22025S   24337.18257758 -.00001874  00000+0 -10696-3 0  9993
2 51972  53.0558 307.1560 0001278  82.4185 277.6949 15.06402377151219
STARLINK-3679           
1 51973U 22025T   24337.32263587  .00000094  00000+0  25183-4 0  9996
2 51973  53.0539 306.4701 0001709  93.1805 266.9379 15.06399801151232
STARLINK-3672           
1 51974U 22025U   24337.64331664 -.00001655  00000+0 -92280-4 0  9992
2 51974  53.0479 305.0860 0001024  77.2373 282.8731 15.06392255152360
STARLINK-3674           
1 51975U 22025V   24336.63206368 -.00000499  00000+0 -14619-4 0  9998
2 51975  53.0557 305.2210 0001517  80.9233 279.1928 15.06401538152308
STARLINK-3663           
1 51976U 22025W   24337.34879777  .00040573  00000+0  21315-2 0  9992
2 51976  53.2153 312.7730 0008331  60.2336 299.9487 15.15308957151297
STARLINK-3660           
1 51977U 22025X   24337.59363068  .00000008  00000+0  18620-4 0  9997
2 51977  53.2234 293.5577 0001449  89.8929 270.2230 15.08834615151577
STARLINK-3666           
1 51978U 22025Y   24337.58334491  .01191310  00000+0  16194-1 0  9994
2 51978  53.2162 309.9670 0001009  86.5235 341.0300 15.54514251  5452
STARLINK-3656           
1 51979U 22025Z   24337.66443420  .00000478  00000+0  48152-4 0  9992
2 51979  53.2141 313.2276 0001747  87.9606 272.1586 15.08833436152424
STARLINK-3649           
1 51980U 22025AA  24337.24490648 -.00000212  00000+0  47739-5 0  9990
2 51980  53.2137 315.1142 0001556  95.3278 264.7892 15.08838979151243
STARLINK-3635           
1 51981U 22025AB  24337.65706335 -.00000732  00000+0 -27891-4 0  9993
2 51981  53.2145 313.2629 0001761  98.5218 261.5973 15.08853533152406
STARLINK-3650           
1 51982U 22025AC  24337.58334491  .01202789  00000+0  12544-1 0  9997
2 51982  53.2133 309.3623 0001069  94.3413 334.7758 15.61151098  5852
STARLINK-3655           
1 51983U 22025AD  24337.32219242  .00000262  00000+0  34536-4 0  9995
2 51983  53.2174 314.7731 0001236  85.5381 274.5752 15.08837113151251
STARLINK-3664           
1 51984U 22025AE  24337.35995515  .00001685  00000+0  12395-3 0  9991
2 51984  53.2191 314.6851 0001518  99.4016 260.7148 15.08832706151265
STARLINK-3651           
1 51985U 22025AF  24337.64698440  .00008186  00000+0  53157-3 0  9995
2 51985  53.2122 313.3168 0001914  95.4772 264.6438 15.08857855152394
STARLINK-3645           
1 51986U 22025AG  24337.66072635  .00001394  00000+0  10558-3 0  9992
2 51986  53.2230 313.0933 0001103  77.3117 282.7999 15.08854219152400
STARLINK-3644           
1 51987U 22025AH  24337.35898894  .00001523  00000+0  11380-3 0  9990
2 51987  53.2176 314.6025 0001873  93.5765 266.5441 15.08838522151266
STARLINK-3640           
1 51988U 22025AJ  24337.34059016  .00001667  00000+0  12282-3 0  9996
2 51988  53.2168 314.6813 0001886  94.7207 265.4001 15.08841489151267
STARLINK-3642           
1 51989U 22025AK  24337.35530626  .00001056  00000+0  84446-4 0  9993
2 51989  53.2150 314.6172 0001647 102.4681 257.6496 15.08841386151262
STARLINK-3657           
1 51990U 22025AL  24337.58899281  .00000171  00000+0  28845-4 0  9993
2 51990  53.2324 293.5722 0002471  94.9540 265.1735 15.08843068151571
STARLINK-3652           
1 51991U 22025AM  24337.34796667  .00016138  00000+0  10296-2 0  9991
2 51991  53.2107 314.6525 0001498  89.8133 270.3030 15.08844047151266
STARLINK-3643           
1 51992U 22025AN  24337.57795745 -.00000098  00000+0  11989-4 0  9994
2 51992  53.2135 293.6198 0002625  95.1171 265.0121 15.08830872151145
STARLINK-3648           
1 51993U 22025AP  24337.66811105 -.00000024  00000+0  16569-4 0  9992
2 51993  53.1977 313.2134 0001693  91.7991 268.3195 15.08836146152423
STARLINK-3647           
1 51994U 22025AQ  24337.17682849  .00001929  00000+0  13924-3 0  9995
2 51994  53.2172 295.4204 0001896  89.1384 270.9826 15.08841208151090
STARLINK-3636           
1 51995U 22025AR  24337.58530574  .00000074  00000+0  22758-4 0  9994
2 51995  53.2215 293.5894 0002322  99.9613 260.1641 15.08843736151142
STARLINK-3538           
1 51996U 22025AS  24337.17314637  .00002786  00000+0  19304-3 0  9994
2 51996  53.2209 295.4343 0000607 107.5737 252.5322 15.08840771151094
STARLINK-3589           
1 51997U 22025AT  24337.58163482  .00000437  00000+0  45540-4 0  9993
2 51997  53.2125 293.6038 0001797  90.1283 269.9915 15.08832622152667
STARLINK-3618           
1 51998U 22025AU  24337.27619411  .00001041  00000+0  83533-4 0  9994
2 51998  53.2142 294.9718 0001398  76.5998 283.5149 15.08829189151118
STARLINK-3667           
1 51999U 22025AV  24336.63953595  .00002189  00000+0  15554-3 0  9999
2 51999  53.2184 297.8206 0001546  93.7612 266.3556 15.08852782151013
STARLINK-3653           
1 52000U 22025AW  24337.59263270  .00012220  00000+0  78361-3 0  9995
2 52000  53.2198 293.4692 0001781 100.5279 259.5914 15.08884086152699
STARLINK-3659           
1 52001U 22025AX  24336.87603007  .00000967  00000+0  78874-4 0  9997
2 52001  53.2241 296.7841 0001913  90.7920 269.3291 15.08833681151052
STARLINK-3668           
1 52002U 22025AY  24336.87507490  .00001619  00000+0  11979-3 0  9994
2 52002  53.2180 296.8139 0002053  88.1045 272.0182 15.08840118151054
STARLINK-3654           
1 52003U 22025AZ  24337.58749479  .00000703  00000+0  45388-4 0  9994
2 52003  53.2130 292.7861 0001339  88.3242 271.7909 15.21345908152689
STARLINK-3537           
1 52088U 22029A   24337.49924492  .00036101  00000+0  21976-2 0  9997
2 52088  53.2165 253.6298 0002163 138.3573 221.7584 15.10101054152425
STARLINK-3722           
1 52089U 22029B   24337.40223197 -.00000061  00000+0  14292-4 0  9995
2 52089  53.2170   4.4099 0001680  83.2248 276.8935 15.08842515150861
STARLINK-3712           
1 52090U 22029C   24337.78863944 -.00000221  00000+0  42368-5 0  9992
2 52090  53.2164   2.6748 0001765  94.3831 265.7363 15.08827076150926
